{"type": "FeatureCollection", "features": [ {"type": "Feature", "properties": {"norad_id": 28649, "name": "IRS-P5 (CARTOSAT-1)", "group": "resource", "lat": -50.20735013905913, "lon": -172.94283083862797, "alt_km": 604.3344043942561, "timestamp": "2025-12-15T22:44:28.579816+00:00", "meta": {"OBJECT_NAME": "IRS-P5 (CARTOSAT-1)", "OBJECT_ID": "2005-017A", "EPOCH": "2025-12-15T02:22:25.306464", "MEAN_MOTION": 14.90414506, "ECCENTRICITY": 0.00011041, "INCLINATION": 97.5498, "RA_OF_ASC_NODE": 15.408, "ARG_OF_PERICENTER": 47.5885, "MEAN_ANOMALY": 312.5427, "EPHEMERIS_TYPE": 0, "CLASSIFICATION_TYPE": "U", "NORAD_CAT_ID": 28649, "ELEMENT_SET_NO": 999, "REV_AT_EPOCH": 11639, "BSTAR": 0.00018935037, "MEAN_MOTION_DOT": 1.792e-05, "MEAN_MOTION_DDOT": 0}, "tle": {"line1": "1 28649U 05017A   25349.09890401  .00001792  00000+0  18935-3 0  9993", "line2": "2 28649  97.5498  15.4080 0001104  47.5885 312.5427 14.90414506116392"}}, "geometry": {"type": "Point", "coordinates": [-172.94283083862797, -50.20735013905913]}}, {"type": "Feature", "properties": {"norad_id": 28893, "name": "SINAH 1", "group": "resource", "lat": -77.50980969869747, "lon": 159.49533477945386, "alt_km": 697.3535016301548, "timestamp": "2025-12-15T22:44:28.579827+00:00", "meta": {"OBJECT_NAME": "SINAH 1", "OBJECT_ID": "2005-043D", "EPOCH": "2025-12-15T08:20:48.413184", "MEAN_MOTION": 14.63965461, "ECCENTRICITY": 0.00154586, "INCLINATION": 98.2604, "RA_OF_ASC_NODE": 117.912, "ARG_OF_PERICENTER": 129.3264, "MEAN_ANOMALY": 230.9311, "EPHEMERIS_TYPE": 0, "CLASSIFICATION_TYPE": "U", "NORAD_CAT_ID": 28893, "ELEMENT_SET_NO": 999, "REV_AT_EPOCH": 7362, "BSTAR": 0.00010046813, "MEAN_MOTION_DOT": 4.78e-06, "MEAN_MOTION_DDOT": 0}, "tle": {"line1": "1 28893U 05043D   25349.34778256  .00000478  00000+0  10047-3 0  9990", "line2": "2 28893  98.2604 117.9120 0015458 129.3264 230.9311 14.63965461 73624"}}, "geometry": {"type": "Point", "coordinates": [159.49533477945386, -77.50980969869747]}}, {"type": "Feature", "properties": {"norad_id": 29079, "name": "EROS B", "group": "resource", "lat": 56.74329943002934, "lon": 95.33000960052686, "alt_km": 356.2046670133059, "timestamp": "2025-12-15T22:44:28.579839+00:00", "meta": {"OBJECT_NAME": "EROS B", "OBJECT_ID": "2006-014A", "EPOCH": "2025-12-15T07:11:33.396576", "MEAN_MOTION": 15.69120309, "ECCENTRICITY": 0.00026695, "INCLINATION": 97.346, "RA_OF_ASC_NODE": 105.9962, "ARG_OF_PERICENTER": 310.4161, "MEAN_ANOMALY": 49.6868, "EPHEMERIS_TYPE": 0, "CLASSIFICATION_TYPE": "U", "NORAD_CAT_ID": 29079, "ELEMENT_SET_NO": 999, "REV_AT_EPOCH": 9120, "BSTAR": 0.0010801178, "MEAN_MOTION_DOT": 0.00126575, "MEAN_MOTION_DDOT": 0}, "tle": {"line1": "1 29079U 06014A   25349.29969209  .00126575  00000+0  10801-2 0  9994", "line2": "2 29079  97.3460 105.9962 0002669 310.4161  49.6868 15.69120309 91208"}}, "geometry": {"type": "Point", "coordinates": [95.33000960052686, 56.74329943002934]}}, {"type": "Feature", "properties": {"norad_id": 29228, "name": "RESURS-DK 1", "group": "resource", "lat": 41.16449229521036, "lon": 112.18821224596172, "alt_km": 529.8018510948759, "timestamp": "2025-12-15T22:44:28.579849+00:00", "meta": {"OBJECT_NAME": "RESURS-DK 1", "OBJECT_ID": "2006-021A", "EPOCH": "2025-12-15T08:15:25.086240", "MEAN_MOTION": 15.12177088, "ECCENTRICITY": 0.00070005, "INCLINATION": 69.9335, "RA_OF_ASC_NODE": 95.1081, "ARG_OF_PERICENTER": 257.1339, "MEAN_ANOMALY": 102.9045, "EPHEMERIS_TYPE": 0, "CLASSIFICATION_TYPE": "U", "NORAD_CAT_ID": 29228, "ELEMENT_SET_NO": 999, "REV_AT_EPOCH": 7477, "BSTAR": 0.00013453081, "MEAN_MOTION_DOT": 2.22e-05, "MEAN_MOTION_DDOT": 0}, "tle": {"line1": "1 29228U 06021A   25349.34404035  .00002220  00000+0  13453-3 0  9992", "line2": "2 29228  69.9335  95.1081 0007000 257.1339 102.9045 15.12177088 74777"}}, "geometry": {"type": "Point", "coordinates": [112.18821224596172, 41.16449229521036]}}, {"type": "Feature", "properties": {"norad_id": 29268, "name": "ARIRANG-2 (KOMPSAT-2)", "group": "resource", "lat": -10.682590226824722, "lon": -3.223120500606175, "alt_km": 685.8476846369367, "timestamp": "2025-12-15T22:44:28.579860+00:00", "meta": {"OBJECT_NAME": "ARIRANG-2 (KOMPSAT-2)", "OBJECT_ID": "2006-031A", "EPOCH": "2025-12-15T09:17:33.157248", "MEAN_MOTION": 14.64496574, "ECCENTRICITY": 0.00133688, "INCLINATION": 97.8264, "RA_OF_ASC_NODE": 177.7308, "ARG_OF_PERICENTER": 300.2523, "MEAN_ANOMALY": 177.9918, "EPHEMERIS_TYPE": 0, "CLASSIFICATION_TYPE": "U", "NORAD_CAT_ID": 29268, "ELEMENT_SET_NO": 999, "REV_AT_EPOCH": 3457, "BSTAR": 9.0588718e-05, "MEAN_MOTION_DOT": 4.35e-06, "MEAN_MOTION_DDOT": 0}, "tle": {"line1": "1 29268U 06031A   25349.38718932  .00000435  00000+0  90589-4 0  9997", "line2": "2 29268  97.8264 177.7308 0013368 300.2523 177.9918 14.64496574 34575"}}, "geometry": {"type": "Point", "coordinates": [-3.223120500606175, -10.682590226824722]}}, {"type": "Feature", "properties": {"norad_id": 29709, "name": "LAPAN-TUBSAT", "group": "resource", "lat": 9.36099305648391, "lon": -21.179374319435837, "alt_km": 607.7093057027323, "timestamp": "2025-12-15T22:44:28.579872+00:00", "meta": {"OBJECT_NAME": "LAPAN-TUBSAT", "OBJECT_ID": "2007-001A", "EPOCH": "2025-12-15T08:09:04.439808", "MEAN_MOTION": 14.85677678, "ECCENTRICITY": 0.00135769, "INCLINATION": 98.1258, "RA_OF_ASC_NODE": 339.5498, "ARG_OF_PERICENTER": 66.4449, "MEAN_ANOMALY": 293.819, "EPHEMERIS_TYPE": 0, "CLASSIFICATION_TYPE": "U", "NORAD_CAT_ID": 29709, "ELEMENT_SET_NO": 999, "REV_AT_EPOCH": 2385, "BSTAR": 0.00016774026, "MEAN_MOTION_DOT": 1.399e-05, "MEAN_MOTION_DDOT": 0}, "tle": {"line1": "1 29709U 07001A   25349.33963472  .00001399  00000+0  16774-3 0  9994", "line2": "2 29709  98.1258 339.5498 0013576  66.4449 293.8190 14.85677678 23857"}}, "geometry": {"type": "Point", "coordinates": [-21.179374319435837, 9.36099305648391]}}, {"type": "Feature", "properties": {"norad_id": 31113, "name": "HAIYANG-1B", "group": "resource", "lat": -15.990978482761802, "lon": -23.49998851936348, "alt_km": 786.0785743169845, "timestamp": "2025-12-15T22:44:28.579882+00:00", "meta": {"OBJECT_NAME": "HAIYANG-1B", "OBJECT_ID": "2007-010A", "EPOCH": "2025-12-15T06:02:05.816544", "MEAN_MOTION": 14.30965905, "ECCENTRICITY": 0.00141529, "INCLINATION": 98.3317, "RA_OF_ASC_NODE": 333.4258, "ARG_OF_PERICENTER": 30.8993, "MEAN_ANOMALY": 329.3021, "EPHEMERIS_TYPE": 0, "CLASSIFICATION_TYPE": "U", "NORAD_CAT_ID": 31113, "ELEMENT_SET_NO": 999, "REV_AT_EPOCH": 97432, "BSTAR": 6.8957036e-05, "MEAN_MOTION_DOT": 1.4e-06, "MEAN_MOTION_DDOT": 0}, "tle": {"line1": "1 31113U 07010A   25349.25145621  .00000140  00000+0  68957-4 0  9999", "line2": "2 31113  98.3317 333.4258 0014152  30.8993 329.3021 14.30965905974322"}}, "geometry": {"type": "Point", "coordinates": [-23.49998851936348, -15.990978482761802]}}, {"type": "Feature", "properties": {"norad_id": 31598, "name": "COSMO-SKYMED 1", "group": "resource", "lat": 78.91653855341747, "lon": 130.34905500034566, "alt_km": 571.5972134634994, "timestamp": "2025-12-15T22:44:28.579893+00:00", "meta": {"OBJECT_NAME": "COSMO-SKYMED 1", "OBJECT_ID": "2007-023A", "EPOCH": "2025-12-15T09:31:52.655808", "MEAN_MOTION": 14.95786014, "ECCENTRICITY": 0.00014179, "INCLINATION": 97.8834, "RA_OF_ASC_NODE": 174.8134, "ARG_OF_PERICENTER": 89.275, "MEAN_ANOMALY": 270.8633, "EPHEMERIS_TYPE": 0, "CLASSIFICATION_TYPE": "U", "NORAD_CAT_ID": 31598, "ELEMENT_SET_NO": 999, "REV_AT_EPOCH": 230, "BSTAR": 0.00033694417, "MEAN_MOTION_DOT": 3.7e-05, "MEAN_MOTION_DDOT": 0}, "tle": {"line1": "1 31598U 07023A   25349.39713722  .00003700  00000+0  33694-3 0  9992", "line2": "2 31598  97.8834 174.8134 0001417  89.2750 270.8633 14.95786014  2308"}}, "geometry": {"type": "Point", "coordinates": [130.34905500034566, 78.91653855341747]}}, {"type": "Feature", "properties": {"norad_id": 31698, "name": "TERRASAR-X", "group": "resource", "lat": 7.318147843136231, "lon": -5.68146083134341, "alt_km": 510.16789395295564, "timestamp": "2025-12-15T22:44:28.579904+00:00", "meta": {"OBJECT_NAME": "TERRASAR-X", "OBJECT_ID": "2007-026A", "EPOCH": "2025-12-14T13:30:41.171328", "MEAN_MOTION": 15.19155649, "ECCENTRICITY": 0.00017638, "INCLINATION": 97.4455, "RA_OF_ASC_NODE": 353.9163, "ARG_OF_PERICENTER": 88.5076, "MEAN_ANOMALY": 271.6361, "EPHEMERIS_TYPE": 0, "CLASSIFICATION_TYPE": "U", "NORAD_CAT_ID": 31698, "ELEMENT_SET_NO": 999, "REV_AT_EPOCH": 2519, "BSTAR": 9.163965e-05, "MEAN_MOTION_DOT": 1.858e-05, "MEAN_MOTION_DDOT": 0}, "tle": {"line1": "1 31698U 07026A   25348.56297652  .00001858  00000+0  91640-4 0  9991", "line2": "2 31698  97.4455 353.9163 0001763  88.5076 271.6361 15.19155649 25193"}}, "geometry": {"type": "Point", "coordinates": [-5.68146083134341, 7.318147843136231]}}, {"type": "Feature", "properties": {"norad_id": 32060, "name": "WORLDVIEW-1 (WV-1)", "group": "resource", "lat": 71.46957914273976, "lon": 84.62279418731387, "alt_km": 484.2263170802671, "timestamp": "2025-12-15T22:44:28.579914+00:00", "meta": {"OBJECT_NAME": "WORLDVIEW-1 (WV-1)", "OBJECT_ID": "2007-041A", "EPOCH": "2025-12-15T08:14:49.347744", "MEAN_MOTION": 15.24737032, "ECCENTRICITY": 8.366e-05, "INCLINATION": 97.3835, "RA_OF_ASC_NODE": 106.7877, "ARG_OF_PERICENTER": 113.5789, "MEAN_ANOMALY": 246.5537, "EPHEMERIS_TYPE": 0, "CLASSIFICATION_TYPE": "U", "NORAD_CAT_ID": 32060, "ELEMENT_SET_NO": 999, "REV_AT_EPOCH": 1487, "BSTAR": 0.00027422844, "MEAN_MOTION_DOT": 6.719e-05, "MEAN_MOTION_DDOT": 0}, "tle": {"line1": "1 32060U 07041A   25349.34362671  .00006719  00000+0  27423-3 0  9991", "line2": "2 32060  97.3835 106.7877 0000836 113.5789 246.5537 15.24737032 14871"}}, "geometry": {"type": "Point", "coordinates": [84.62279418731387, 71.46957914273976]}}]}